ONEWEB-0555             
1 56057U 23043M   25268.50984148  .00000015  00000+0  68610-5 0  9998
2 56057  87.8969 281.5136 0002413  87.7274 272.4133 13.16592801124132
ONEWEB-0557             
1 56058U 23043N   25268.60009946 -.00000022  00000+0 -90025-4 0  9998
2 56058  87.8959 281.5130 0002651  63.7820 296.3584 13.16594949124142
ONEWEB-0558             
1 56059U 23043P   25268.50523626  .00000042  00000+0  69747-4 0  9991
2 56059  87.9183 296.8056 0001719 106.9384 253.1939 13.21825045123276
ONEWEB-0559             
1 56060U 23043Q   25268.49419877  .00000032  00000+0  44995-4 0  9990
2 56060  87.9185 296.8004 0001517  96.9591 263.1716 13.21824652123285
ONEWEB-0566             
1 56061U 23043R   25268.63928162  .00000023  00000+0  25208-4 0  9995
2 56061  87.9183 296.7691 0001668 101.4479 258.6842 13.21824588123286
ONEWEB-0568             
1 56062U 23043S   25268.46552251  .00000015  00000+0  44291-5 0  9994
2 56062  87.8970 281.5209 0002183  90.3044 269.8337 13.16595281124142
ONEWEB-0574             
1 56063U 23043T   25268.63297532 -.00000019  00000+0 -76607-4 0  9993
2 56063  87.9185 296.7589 0001896  87.7241 272.4110 13.21826198123328
ONEWEB-0575             
1 56064U 23043U   25268.53517348 -.00000076  00000+0 -23160-3 0  9991
2 56064  87.8966 281.5106 0002105  79.8794 280.2575 13.16595443124144
ONEWEB-0576             
1 56065U 23043V   25268.59217758 -.00000031  00000+0 -11359-3 0  9998
2 56065  87.8977 281.4952 0002082  88.4564 271.6806 13.16595345124142
ONEWEB-0577             
1 56066U 23043W   25268.59851988 -.00000070  00000+0 -21717-3 0  9990
2 56066  87.8974 281.4948 0002154  73.4784 286.6583 13.16594535124174
ONEWEB-0578             
1 56067U 23043X   25268.46896180 -.00000069  00000+0 -19800-3 0  9998
2 56067  87.9182 296.8012 0002128  93.1452 266.9926 13.21826242123261
ONEWEB-0579             
1 56068U 23043Y   25268.61089873  .00000004  00000+0 -22368-4 0  9991
2 56068  87.9185 296.7596 0001606  94.1928 265.9390 13.21825574123294
ONEWEB-0581             
1 56069U 23043Z   25268.52884276 -.00000103  00000+0 -30261-3 0  9993
2 56069  87.8963 281.5265 0001815  77.1514 282.9819 13.16592639124133
ONEWEB-0609             
1 56070U 23043AA  25268.65637115  .00000165  00000+0  40505-3 0  9995
2 56070  87.9010 312.0073 0001829  98.1612 261.9726 13.15550736121652
ONEWEB-0613             
1 56071U 23043AB  25268.49950660  .00000093  00000+0  21357-3 0  9995
2 56071  87.9010 312.0525 0001588 102.2555 257.8753 13.15550871121632
ONEWEB-0630             
1 56072U 23043AC  25268.64685523  .00000166  00000+0  40687-3 0  9994
2 56072  87.9006 311.9958 0001581 102.4532 257.6775 13.15550102121646
ONEWEB-0632             
1 56073U 23043AD  25268.64210483  .00000000  00000+0 -32940-4 0  9996
2 56073  87.9003 312.0167 0001751  90.0657 270.0674 13.15546399121647
ONEWEB-0633             
1 56074U 23043AE  25268.63575333 -.00000154  00000+0 -44389-3 0  9994
2 56074  87.9002 311.9815 0001658 109.8272 250.3037 13.15549467121624
ONEWEB-0634             
1 56075U 23043AF  25268.08909254 -.00000260  00000+0 -72555-3 0  9991
2 56075  87.9015 312.1349 0002080 103.9413 256.1949 13.15548401121540
ONEWEB-0635             
1 56076U 23043AG  25268.61676333 -.00000108  00000+0 -32055-3 0  9992
2 56076  87.8995 311.9903 0001812  86.6944 273.4394 13.15548173121641
ONEWEB-0636             
1 56077U 23043AH  25268.68487788 -.00000134  00000+0 -39043-3 0  9997
2 56077  87.9000 311.9938 0001806  89.1841 270.9497 13.15550716121636
ONEWEB-0637             
1 56078U 23043AJ  25268.67856420 -.00000168  00000+0 -47997-3 0  9994
2 56078  87.9004 312.0083 0002143  89.8821 270.2555 13.15549688121650
ONEWEB-0647             
1 56079U 23043AK  25268.59772904 -.00000056  00000+0 -18260-3 0  9997
2 56079  87.9007 312.0376 0001679  93.5914 266.5409 13.15549850121632
ONEWEB-0651             
1 56080U 23043AL  25268.59299979  .00000017  00000+0  11932-4 0  9990
2 56080  87.9009 312.0307 0001951  87.4112 272.7242 13.15548552122830
ONEWEB-0718             
1 56081U 23043AM  25268.66429046 -.00000006  00000+0 -51100-4 0  9990
2 56081  87.9008 311.9972 0002345 105.8933 254.2456 13.15550323121650
ONEWEB-0561             
1 56710U 23068A   25268.12476779  .00000126  00000+0  27885-3 0  9995
2 56710  87.9251 327.3071 0001616  84.5343 275.5975 13.20771536114514
ONEWEB-0668             
1 56711U 23068B   25268.60723775  .00000023  00000+0  26145-4 0  9995
2 56711  87.8976 281.4861 0002385  96.2497 263.8905 13.16592862116961
ONEWEB-0676             
1 56712U 23068C   25268.89140983  .00000068  00000+0  14366-3 0  9991
2 56712  87.8970 281.4471 0001759  81.3256 278.8074 13.16591940116920
ONEWEB-0677             
1 56713U 23068D   25268.71976727 -.00000025  00000+0 -92637-4 0  9999
2 56713  87.9253 327.1658 0002029  90.3301 269.8065 13.20771423114898
ONEWEB-0678             
1 56714U 23068E   25268.63259061  .00000017  00000+0  11914-4 0  9994
2 56714  87.9009 311.9768 0001531  99.1596 260.9708 13.15550135114504
ONEWEB-0679             
1 56715U 23068F   25268.93654503  .00000030  00000+0  43515-4 0  9995
2 56715  87.8963 281.4305 0002290  82.9606 277.1786 13.16594997116958
ONEWEB-0680             
1 56716U 23068G   25268.46265043 -.00000033  00000+0 -11257-3 0  9993
2 56716  87.9183 296.7880 0002520  95.1422 264.9999 13.21825926116123
ONEWEB-0681             
1 56717U 23068H   25268.59197153 -.00000036  00000+0 -11907-3 0  9999
2 56717  87.9183 296.7797 0002000  60.8687 299.2647 13.21825567116139
ONEWEB-0682             
1 56718U 23068J   25268.65874581  .00000146  00000+0  35474-3 0  9999
2 56718  87.9003 311.9907 0002363  94.5663 265.5737 13.15549128114676
ONEWEB-0683             
1 56719U 23068K   25268.68012889 -.00000108  00000+0 -32196-3 0  9996
2 56719  87.9008 311.9655 0002162  97.0420 263.0956 13.15550169114648
ONEWEB-0684             
1 56720U 23068L   25268.68804401 -.00000166  00000+0 -47525-3 0  9993
2 56720  87.8995 311.9616 0001417 144.5274 215.5951 13.15547113114471
ONEWEB-0686             
1 56721U 23068M   25268.47025610  .00000047  00000+0  89129-4 0  9991
2 56721  87.8960 281.5527 0002029  99.8482 260.2878 13.16592450116887
ONEWEB-0694             
1 56722U 23068N   25268.58901267 -.00000035  00000+0 -12593-3 0  9994
2 56722  87.8982 281.4608 0002328  92.3614 267.7784 13.16593335116957
ONEWEB-0696             
1 56723U 23068P   25268.64527292  .00000134  00000+0  32186-3 0  9992
2 56723  87.9003 312.0249 0001544  98.6668 261.4637 13.15547200114586
ONEWEB-0703             
1 56724U 23068Q   25268.65477850  .00000171  00000+0  42149-3 0  9999
2 56724  87.9000 312.0069 0000877  72.3753 287.7473 13.15546868114472
ONEWEB-0721             
1 56725U 23068R   25268.78460793  .00000088  00000+0  17557-3 0  9994
2 56725  86.6873 169.8168 0001716  72.9571 287.1750 13.22445967122996
ONEWEB-0015             
1 61594U 24188A   25268.94114152 -.00000399  00000+0 -11605-2 0  9995
2 61594  87.8792  73.7376 0001986  74.8777 285.2571 13.11414082 49823
ONEWEB-0687             
1 61595U 24188B   25268.89697747  .00000024  00000+0  28695-4 0  9998
2 61595  87.9057  58.4714 0002271  91.0732 269.0660 13.17647436 51093
ONEWEB-0688             
1 61596U 24188C   25268.84972433  .00000821  00000+0  20812-2 0  9998
2 61596  87.9068  58.4813 0002531  69.4998 290.6405 13.17651104 51081
ONEWEB-0689             
1 61597U 24188D   25268.89876340  .00000301  00000+0  81254-3 0  9995
2 61597  87.8763  73.6960 0001969  94.8716 265.2637 13.11418592 49818
ONEWEB-0690             
1 61598U 24188E   25268.90895507  .00000524  00000+0  14419-2 0  9999
2 61598  87.8805  73.6808 0000874  83.6974 276.4253 13.11417377 49990
ONEWEB-0691             
1 61599U 24188F   25268.90385190  .00000476  00000+0  13080-2 0  9991
2 61599  87.8726  73.6282 0001827  76.2719 283.8612 13.11415778 49841
ONEWEB-0692             
1 61600U 24188G   25268.92420347  .00000286  00000+0  77219-3 0  9994
2 61600  87.8781  73.7393 0001933 121.2449 238.8868 13.11411377 49831
ONEWEB-0693             
1 61601U 24188H   25268.93746855  .00000051  00000+0  99226-4 0  9994
2 61601  87.9059  58.4821 0000996  70.3203 289.8036 13.17649643 51085
ONEWEB-0695             
1 61602U 24188J   25268.90045498  .00000357  00000+0  97130-3 0  9997
2 61602  87.8788  73.7312 0002042 103.2623 256.8733 13.11419115 49825
ONEWEB-0697             
1 61603U 24188K   25268.85637548 -.00000160  00000+0 -48790-3 0  9997
2 61603  87.8781  73.7311 0001832 119.3249 240.8063 13.11413459 49808
ONEWEB-0698             
1 61604U 24188L   25268.91063885  .00000526  00000+0  14469-2 0  9991
2 61604  87.8785  73.7347 0001134 132.5765 227.5459 13.11415702 49834
ONEWEB-0699             
1 61605U 24188M   25268.94222611  .00000415  00000+0  11539-2 0  9991
2 61605  87.8752  88.9446 0001628 111.5969 248.5332 13.10375372 48703
ONEWEB-0700             
1 61606U 24188N   25268.94388838  .00000479  00000+0  13360-2 0  9990
2 61606  87.8744  88.8274 0002182 103.6311 256.5059 13.10375913 48696
ONEWEB-0701             
1 61607U 24188P   25268.88412167  .00000616  00000+0  17285-2 0  9990
2 61607  87.8736  88.9599 0001739 118.1860 241.9443 13.10371525 48696
ONEWEB-0702             
1 61608U 24188Q   25268.88011659 -.00000444  00000+0 -12889-2 0  9998
2 61608  87.8728  73.6617 0002147 117.9595 242.1750 13.11416801 49846
ONEWEB-0704             
1 61609U 24188R   25268.94886292  .00000633  00000+0  17779-2 0  9990
2 61609  87.8763  88.9006 0002211 113.3151 246.8209 13.10374383 48685
ONEWEB-0705             
1 61610U 24188S   25268.87747172  .00000130  00000+0  33628-3 0  9991
2 61610  87.8748  88.9466 0002825  94.4559 265.6891 13.10373972 40841
ONEWEB-0706             
1 61611U 24188T   25268.93889771  .00000273  00000+0  74562-3 0  9991
2 61611  87.8746  88.9612 0002127 102.3557 257.7809 13.10375843 48775
